{"type": "FeatureCollection", "features": [ {"type": "Feature", "properties": {"norad_id": 28649, "name": "IRS-P5 (CARTOSAT-1)", "group": "resource", "lat": 59.426114201137004, "lon": -142.36250066324925, "alt_km": 590.6397935415735, "timestamp": "2025-12-24T18:55:55.713590+00:00", "meta": {"OBJECT_NAME": "IRS-P5 (CARTOSAT-1)", "OBJECT_ID": "2005-017A", "EPOCH": "2025-12-24T02:17:04.481664", "MEAN_MOTION": 14.90440964, "ECCENTRICITY": 5.558e-05, "INCLINATION": 97.5482, "RA_OF_ASC_NODE": 24.0044, "ARG_OF_PERICENTER": 59.793, "MEAN_ANOMALY": 300.3343, "EPHEMERIS_TYPE": 0, "CLASSIFICATION_TYPE": "U", "NORAD_CAT_ID": 28649, "ELEMENT_SET_NO": 999, "REV_AT_EPOCH": 11773, "BSTAR": 0.00016929981, "MEAN_MOTION_DOT": 1.598e-05, "MEAN_MOTION_DDOT": 0}, "tle": {"line1": "1 28649U 05017A   25358.09519076  .00001598  00000+0  16930-3 0  9996", "line2": "2 28649  97.5482  24.0044 0000555  59.7930 300.3343 14.90440964117734"}}, "geometry": {"type": "Point", "coordinates": [-142.36250066324925, 59.426114201137004]}}, {"type": "Feature", "properties": {"norad_id": 28893, "name": "SINAH 1", "group": "resource", "lat": 46.94717462936913, "lon": 118.43219401494714, "alt_km": 669.7133476590552, "timestamp": "2025-12-24T18:55:55.713602+00:00", "meta": {"OBJECT_NAME": "SINAH 1", "OBJECT_ID": "2005-043D", "EPOCH": "2025-12-24T07:13:59.450592", "MEAN_MOTION": 14.63974193, "ECCENTRICITY": 0.00157145, "INCLINATION": 98.2609, "RA_OF_ASC_NODE": 126.8899, "ARG_OF_PERICENTER": 103.3079, "MEAN_ANOMALY": 256.9876, "EPHEMERIS_TYPE": 0, "CLASSIFICATION_TYPE": "U", "NORAD_CAT_ID": 28893, "ELEMENT_SET_NO": 999, "REV_AT_EPOCH": 7493, "BSTAR": 9.516032e-05, "MEAN_MOTION_DOT": 4.5e-06, "MEAN_MOTION_DDOT": 0}, "tle": {"line1": "1 28893U 05043D   25358.30138253  .00000450  00000+0  95160-4 0  9993", "line2": "2 28893  98.2609 126.8899 0015714 103.3079 256.9876 14.63974193 74933"}}, "geometry": {"type": "Point", "coordinates": [118.43219401494714, 46.94717462936913]}}, {"type": "Feature", "properties": {"norad_id": 29079, "name": "EROS B", "group": "resource", "lat": -23.979768683299085, "lon": 119.25959074595387, "alt_km": 355.73459074667153, "timestamp": "2025-12-24T18:55:55.713616+00:00", "meta": {"OBJECT_NAME": "EROS B", "OBJECT_ID": "2006-014A", "EPOCH": "2025-12-24T06:48:48.737952", "MEAN_MOTION": 15.71995439, "ECCENTRICITY": 0.00042343, "INCLINATION": 97.3454, "RA_OF_ASC_NODE": 115.4383, "ARG_OF_PERICENTER": 312.0616, "MEAN_ANOMALY": 48.0286, "EPHEMERIS_TYPE": 0, "CLASSIFICATION_TYPE": "U", "NORAD_CAT_ID": 29079, "ELEMENT_SET_NO": 999, "REV_AT_EPOCH": 9261, "BSTAR": 0.0014283849, "MEAN_MOTION_DOT": 0.00190097, "MEAN_MOTION_DDOT": 0}, "tle": {"line1": "1 29079U 06014A   25358.28389743  .00190097  00000+0  14284-2 0  9991", "line2": "2 29079  97.3454 115.4383 0004234 312.0616  48.0286 15.71995439 92617"}}, "geometry": {"type": "Point", "coordinates": [119.25959074595387, -23.979768683299085]}}, {"type": "Feature", "properties": {"norad_id": 29228, "name": "RESURS-DK 1", "group": "resource", "lat": -66.68110217791468, "lon": 12.704727567075125, "alt_km": 532.1137567428459, "timestamp": "2025-12-24T18:55:55.713643+00:00", "meta": {"OBJECT_NAME": "RESURS-DK 1", "OBJECT_ID": "2006-021A", "EPOCH": "2025-12-24T04:59:17.537568", "MEAN_MOTION": 15.12222014, "ECCENTRICITY": 0.00068848, "INCLINATION": 69.9336, "RA_OF_ASC_NODE": 72.1999, "ARG_OF_PERICENTER": 248.594, "MEAN_ANOMALY": 111.4492, "EPHEMERIS_TYPE": 0, "CLASSIFICATION_TYPE": "U", "NORAD_CAT_ID": 29228, "ELEMENT_SET_NO": 999, "REV_AT_EPOCH": 7611, "BSTAR": 0.00017491862, "MEAN_MOTION_DOT": 2.923e-05, "MEAN_MOTION_DDOT": 0}, "tle": {"line1": "1 29228U 06021A   25358.20784187  .00002923  00000+0  17492-3 0  9993", "line2": "2 29228  69.9336  72.1999 0006884 248.5940 111.4492 15.12222014 76113"}}, "geometry": {"type": "Point", "coordinates": [12.704727567075125, -66.68110217791468]}}, {"type": "Feature", "properties": {"norad_id": 29268, "name": "ARIRANG-2 (KOMPSAT-2)", "group": "resource", "lat": -23.925598809820585, "lon": -169.8278874984728, "alt_km": 680.7402505518094, "timestamp": "2025-12-24T18:55:55.713667+00:00", "meta": {"OBJECT_NAME": "ARIRANG-2 (KOMPSAT-2)", "OBJECT_ID": "2006-031A", "EPOCH": "2025-12-24T08:07:37.154208", "MEAN_MOTION": 14.64503479, "ECCENTRICITY": 0.00131452, "INCLINATION": 97.8254, "RA_OF_ASC_NODE": 186.2459, "ARG_OF_PERICENTER": 269.1572, "MEAN_ANOMALY": 214.452, "EPHEMERIS_TYPE": 0, "CLASSIFICATION_TYPE": "U", "NORAD_CAT_ID": 29268, "ELEMENT_SET_NO": 999, "REV_AT_EPOCH": 3588, "BSTAR": 9.0663567e-05, "MEAN_MOTION_DOT": 4.36e-06, "MEAN_MOTION_DDOT": 0}, "tle": {"line1": "1 29268U 06031A   25358.33862447  .00000436  00000+0  90664-4 0  9998", "line2": "2 29268  97.8254 186.2459 0013145 269.1572 214.4520 14.64503479 35880"}}, "geometry": {"type": "Point", "coordinates": [-169.8278874984728, -23.925598809820585]}}, {"type": "Feature", "properties": {"norad_id": 29709, "name": "LAPAN-TUBSAT", "group": "resource", "lat": 70.00045604194595, "lon": -167.6914540134, "alt_km": 601.4552120752933, "timestamp": "2025-12-24T18:55:55.713686+00:00", "meta": {"OBJECT_NAME": "LAPAN-TUBSAT", "OBJECT_ID": "2007-001A", "EPOCH": "2025-12-24T05:30:58.817088", "MEAN_MOTION": 14.85688106, "ECCENTRICITY": 0.00132997, "INCLINATION": 98.1262, "RA_OF_ASC_NODE": 348.6228, "ARG_OF_PERICENTER": 40.0682, "MEAN_ANOMALY": 320.1511, "EPHEMERIS_TYPE": 0, "CLASSIFICATION_TYPE": "U", "NORAD_CAT_ID": 29709, "ELEMENT_SET_NO": 999, "REV_AT_EPOCH": 2517, "BSTAR": 9.0248426e-05, "MEAN_MOTION_DOT": 7.26e-06, "MEAN_MOTION_DDOT": 0}, "tle": {"line1": "1 29709U 07001A   25358.22984742  .00000726  00000+0  90248-4 0  9997", "line2": "2 29709  98.1262 348.6228 0013299  40.0682 320.1511 14.85688106 25179"}}, "geometry": {"type": "Point", "coordinates": [-167.6914540134, 70.00045604194595]}}, {"type": "Feature", "properties": {"norad_id": 31113, "name": "HAIYANG-1B", "group": "resource", "lat": 35.77328523172678, "lon": 168.63163813973418, "alt_km": 793.5312217572036, "timestamp": "2025-12-24T18:55:55.713699+00:00", "meta": {"OBJECT_NAME": "HAIYANG-1B", "OBJECT_ID": "2007-010A", "EPOCH": "2025-12-24T04:50:17.446848", "MEAN_MOTION": 14.30968707, "ECCENTRICITY": 0.00136545, "INCLINATION": 98.3328, "RA_OF_ASC_NODE": 342.0068, "ARG_OF_PERICENTER": 5.2041, "MEAN_ANOMALY": 354.9282, "EPHEMERIS_TYPE": 0, "CLASSIFICATION_TYPE": "U", "NORAD_CAT_ID": 31113, "ELEMENT_SET_NO": 999, "REV_AT_EPOCH": 97560, "BSTAR": 5.8730082e-05, "MEAN_MOTION_DOT": 1.13e-06, "MEAN_MOTION_DDOT": 0}, "tle": {"line1": "1 31113U 07010A   25358.20159082  .00000113  00000+0  58730-4 0  9998", "line2": "2 31113  98.3328 342.0068 0013654   5.2041 354.9282 14.30968707975603"}}, "geometry": {"type": "Point", "coordinates": [168.63163813973418, 35.77328523172678]}}, {"type": "Feature", "properties": {"norad_id": 31598, "name": "COSMO-SKYMED 1", "group": "resource", "lat": 36.70992587157127, "lon": 10.198264417995764, "alt_km": 576.7884465649977, "timestamp": "2025-12-24T18:55:55.713717+00:00", "meta": {"OBJECT_NAME": "COSMO-SKYMED 1", "OBJECT_ID": "2007-023A", "EPOCH": "2025-12-24T07:03:28.931904", "MEAN_MOTION": 14.9584984, "ECCENTRICITY": 0.00013371, "INCLINATION": 97.884, "RA_OF_ASC_NODE": 183.7697, "ARG_OF_PERICENTER": 78.543, "MEAN_ANOMALY": 281.5941, "EPHEMERIS_TYPE": 0, "CLASSIFICATION_TYPE": "U", "NORAD_CAT_ID": 31598, "ELEMENT_SET_NO": 999, "REV_AT_EPOCH": 363, "BSTAR": 0.00029869861, "MEAN_MOTION_DOT": 3.278e-05, "MEAN_MOTION_DDOT": 0}, "tle": {"line1": "1 31598U 07023A   25358.29408486  .00003278  00000+0  29870-3 0  9990", "line2": "2 31598  97.8840 183.7697 0001337  78.5430 281.5941 14.95849840  3630"}}, "geometry": {"type": "Point", "coordinates": [10.198264417995764, 36.70992587157127]}}, {"type": "Feature", "properties": {"norad_id": 31698, "name": "TERRASAR-X", "group": "resource", "lat": 82.50488393627425, "lon": -79.63481863791871, "alt_km": 499.7425273036815, "timestamp": "2025-12-24T18:55:55.713728+00:00", "meta": {"OBJECT_NAME": "TERRASAR-X", "OBJECT_ID": "2007-026A", "EPOCH": "2025-12-23T12:30:19.023264", "MEAN_MOTION": 15.19149386, "ECCENTRICITY": 0.00017705, "INCLINATION": 97.4442, "RA_OF_ASC_NODE": 2.7437, "ARG_OF_PERICENTER": 81.4954, "MEAN_ANOMALY": 278.6481, "EPHEMERIS_TYPE": 0, "CLASSIFICATION_TYPE": "U", "NORAD_CAT_ID": 31698, "ELEMENT_SET_NO": 999, "REV_AT_EPOCH": 2655, "BSTAR": 4.2968524e-05, "MEAN_MOTION_DOT": 8.35e-06, "MEAN_MOTION_DDOT": 0}, "tle": {"line1": "1 31698U 07026A   25357.52105351  .00000835  00000+0  42969-4 0  9995", "line2": "2 31698  97.4442   2.7437 0001770  81.4954 278.6481 15.19149386 26559"}}, "geometry": {"type": "Point", "coordinates": [-79.63481863791871, 82.50488393627425]}}, {"type": "Feature", "properties": {"norad_id": 32060, "name": "WORLDVIEW-1 (WV-1)", "group": "resource", "lat": -42.122053168609256, "lon": 122.82721554758145, "alt_km": 498.8731593664261, "timestamp": "2025-12-24T18:55:55.713739+00:00", "meta": {"OBJECT_NAME": "WORLDVIEW-1 (WV-1)", "OBJECT_ID": "2007-041A", "EPOCH": "2025-12-24T06:30:41.321376", "MEAN_MOTION": 15.23940962, "ECCENTRICITY": 0.00032498, "INCLINATION": 97.3827, "RA_OF_ASC_NODE": 115.5844, "ARG_OF_PERICENTER": 358.1364, "MEAN_ANOMALY": 1.9861, "EPHEMERIS_TYPE": 0, "CLASSIFICATION_TYPE": "U", "NORAD_CAT_ID": 32060, "ELEMENT_SET_NO": 999, "REV_AT_EPOCH": 1623, "BSTAR": 0.00037398001, "MEAN_MOTION_DOT": 8.976e-05, "MEAN_MOTION_DDOT": 0}, "tle": {"line1": "1 32060U 07041A   25358.27131159  .00008976  00000+0  37398-3 0  9997", "line2": "2 32060  97.3827 115.5844 0003249 358.1364   1.9861 15.23940962 16233"}}, "geometry": {"type": "Point", "coordinates": [122.82721554758145, -42.122053168609256]}}]}